    Vector Time (GMT): 2020/254/20:35:45.072
    Vector Time (MET): N/A
    Weight (LBS)     : 922309.3
 
              M50 Cartesian                         M50 Keplerian  
    -----------------------------------       --------------------------------
     X    =       -3927120.79                 A    =         6792573.85  meter
     Y    =       -1754849.05  meter          E    =           .0015203
     Z    =       -5270447.45                 I    =           51.24493
     XDOT =       2328.279768                 Wp   =           94.81500
     YDOT =      -7253.915047  meter/sec      RA   =          283.68099  deg
     ZDOT =        680.870351                 TA   =          181.73692
                                              MA   =          181.74220
                                              Ha   =            229.352  n.mi
                                              Hp   =            222.393
 
              M50 Cartesian                         J2K Cartesian  
    -----------------------------------       --------------------------------
     X    =      -12884254.56                 X    =        -3881604.82
     Y    =       -5757378.77  feet           Y    =        -1798510.44  meter
     Z    =      -17291494.27                 Z    =        -5289413.34
     XDOT =       7638.713149                 XDOT =        2405.914901
     YDOT =     -23798.933882  feet/sec       YDOT =       -7227.444468  meter/sec
     ZDOT =       2233.826610                 ZDOT =         692.368814
 
              TDR Cartesian                         TDR Cartesian  
    -----------------------------------       --------------------------------
     X    =        -998805.14                 X    =         -304435.81
     Y    =      -13968673.08  feet           Y    =        -4257651.56  meter
     Z    =      -17378888.36                 Z    =        -5297085.17
     XDOT =      23544.342458                 XDOT =        7176.315581
     YDOT =      -4527.119118  feet/sec       YDOT =       -1379.865907  meter/sec
     ZDOT =       2287.113189                 ZDOT =         697.112100
  
  
    The mean element set is posted at the UTC for which position is
    just north of the next ascending node relative to the above
    vector time
 
 
    TWO LINE MEAN ELEMENT SET
  
    ISS
    1 25544U 98067A   20254.87311373  .00016717  00000-0  10270-3 0  9092
    2 25544  51.6443 284.4426 0000634  84.4296 275.6926 15.48972191  5291
  
  
    Satellite: ISS
    Catalog Number: 25544
    Epoch time:      20254.87311373   =   yrday.fracday
    Element set:     909
    Inclination:       51.6443  deg
    RA of node:       284.4426  deg
    Eccentricity:     .0000634     
    Arg of perigee:    84.4296  deg
    Mean anomaly:     275.6926  deg
    Mean motion:   15.48972191  rev/day
    Decay rate:    1.67170E-04  rev/day^2
    Epoch rev:             529
    Checksum:              327
 
 
    Coasting Arc #11 (Orbit 544)
    ---------------------------------------
 
    Vector Time (GMT): 2020/255/20:35:45.072
    Vector Time (MET): N/A
    Weight (LBS)     : 922309.3
 
              M50 Cartesian                         M50 Keplerian  
    -----------------------------------       --------------------------------
     X    =        4057504.90                 A    =         6792480.57  meter
     Y    =        1406005.33  meter          E    =           .0003548
     Z    =        5260153.69                 I    =           51.23746
     XDOT =      -1693.411844                 Wp   =           66.64869
     YDOT =       7442.242038  meter/sec      RA   =          278.70890  deg
     ZDOT =       -681.273344                 TA   =           29.90852
                                              MA   =           29.88825
                                              Ha   =            229.122  n.mi
                                              Hp   =            222.551
 
              M50 Cartesian                         J2K Cartesian  
    -----------------------------------       --------------------------------
     X    =       13312023.94                 X    =         4015930.20
     Y    =        4612878.37  feet           Y    =         1451146.79  meter
     Z    =       17257722.07                 Z    =         5279762.44
     XDOT =      -5555.813136                 XDOT =       -1773.198145
     YDOT =      24416.804586  feet/sec       YDOT =        7422.858981  meter/sec
     ZDOT =      -2235.148768                 ZDOT =        -689.693033
 
              TDR Cartesian                         TDR Cartesian  
    -----------------------------------       --------------------------------
     X    =        2446293.70                 X    =          745630.32
     Y    =       13761419.89  feet           Y    =         4194480.78  meter
     Z    =       17348099.87                 Z    =         5287700.84
     XDOT =     -22994.210202                 XDOT =       -7008.635270
     YDOT =       6961.722352  feet/sec       YDOT =        2121.932973  meter/sec
     ZDOT =      -2274.228137                 ZDOT =        -693.184736
  
  
    The mean element set is posted at the UTC for which position is
    just north of the next ascending node relative to the above
    vector time
 
 
    TWO LINE MEAN ELEMENT SET
  
    ISS
    1 25544U 98067A   20255.90538213  .00016717  00000-0  10270-3 0  9103
    2 25544  51.6436 279.3372 0000535  85.9083 274.2128 15.48999124  5458
  
  
    Satellite: ISS
    Catalog Number: 25544
    Epoch time:      20255.90538213   =   yrday.fracday
    Element set:     910
    Inclination:       51.6436  deg
    RA of node:       279.3372  deg
    Eccentricity:     .0000535     
    Arg of perigee:    85.9083  deg
    Mean anomaly:     274.2128  deg
    Mean motion:   15.48999124  rev/day
    Decay rate:    1.67170E-04  rev/day^2
    Epoch rev:             545
    Checksum:              315
 
 
    Coasting Arc #12 (Orbit 559)
    ---------------------------------------
 
    Vector Time (GMT): 2020/256/20:35:45.072
    Vector Time (MET): N/A
    Weight (LBS)     : 922309.3
 
              M50 Cartesian                         M50 Keplerian  
    -----------------------------------       --------------------------------
     X    =       -4172742.44                 A    =         6792550.70  meter
     Y    =       -1046282.71  meter          E    =           .0015112
     Z    =       -5269892.44                 I    =           51.23335
     XDOT =       1037.857779                 Wp   =           94.98723
     YDOT =      -7547.801513  meter/sec      RA   =          273.73635  deg
     ZDOT =        677.153072                 TA   =          181.53006
                                              MA   =          181.53469
                                              Ha   =            229.305  n.mi
                                              Hp   =            222.413
 
              M50 Cartesian                         J2K Cartesian  
    -----------------------------------       --------------------------------
     X    =      -13690099.86                 X    =        -4135134.50
     Y    =       -3432686.05  feet           Y    =        -1092735.05  meter
     Z    =      -17289673.38                 Z    =        -5290070.52
     XDOT =       3405.045206                 XDOT =        1118.893226
     YDOT =     -24763.128325  feet/sec       YDOT =       -7535.742343  meter/sec
     ZDOT =       2221.630815                 ZDOT =         682.391403
 
              TDR Cartesian                         TDR Cartesian  
    -----------------------------------       --------------------------------
     X    =       -3892065.07                 X    =        -1186301.43
     Y    =      -13447255.60  feet           Y    =        -4098723.51  meter
     Z    =      -17382695.98                 Z    =        -5298245.74
     XDOT =      22103.310469                 XDOT =        6737.089031
     YDOT =      -9299.058892  feet/sec       YDOT =       -2834.353150  meter/sec
     ZDOT =       2246.022947                 ZDOT =         684.587794
  
  
    The mean element set is posted at the UTC for which position is
    just north of the next ascending node relative to the above
    vector time
 
 
    TWO LINE MEAN ELEMENT SET
  
    ISS
    1 25544U 98067A   20256.87313512  .00016717  00000-0  10270-3 0  9114
    2 25544  51.6434 274.5510 0000529  87.4982 272.6229 15.48978226  5606
  
  
    Satellite: ISS
    Catalog Number: 25544
    Epoch time:      20256.87313512   =   yrday.fracday
    Element set:     911
    Inclination:       51.6434  deg
    RA of node:       274.5510  deg
    Eccentricity:     .0000529     
    Arg of perigee:    87.4982  deg
    Mean anomaly:     272.6229  deg
    Mean motion:   15.48978226  rev/day
    Decay rate:    1.67170E-04  rev/day^2
    Epoch rev:             560
    Checksum:              314
 
 
    Coasting Arc #13 (Orbit 575)
    ---------------------------------------
 
    Vector Time (GMT): 2020/257/20:35:45.072
    Vector Time (MET): N/A
    Weight (LBS)     : 922309.3
 
